STARLINK-1896_new
1 16760C 20074X   21326.13334782  .00005850  00000-0  39202-3 0  3262
2 16760  53.0505 178.1466 0001762  80.2880 145.5092 15.06389270    16
STARLINK-1896_old
1 26760C 20074X   21325.13697214  .00006890  00000-0  46170-3 0  3259
2 26760  53.0507 182.6197 0001759  78.1877 141.2676 15.06383698    16
